[{"OBJECT_NAME":"STARLINK-4490","OBJECT_ID":"2022-097X","EPOCH":"2026-03-09T12:11:45.953664","MEAN_MOTION":15.08837053,"ECCENTRICITY":0.0001525,"INCLINATION":53.2162,"RA_OF_ASC_NODE":105.1299,"ARG_OF_PERICENTER":81.641,"MEAN_ANOMALY":278.4755,"EPHEMERIS_TYPE":0,"CLASSIFICATION_TYPE":"U","NORAD_CAT_ID":53409,"ELEMENT_SET_NO":999,"REV_AT_EPOCH":19876,"BSTAR":5.0140834e-5,"MEAN_MOTION_DOT":5.1e-6,"MEAN_MOTION_DDOT":0},{"OBJECT_NAME":"SSB","OBJECT_ID":"1983-008F","EPOCH":"2026-03-09T21:08:45.677472","MEAN_MOTION":13.7788279,"ECCENTRICITY":0.07173194,"INCLINATION":63.3089,"RA_OF_ASC_NODE":291.2453,"ARG_OF_PERICENTER":133.9599,"MEAN_ANOMALY":232.2962,"EPHEMERIS_TYPE":0,"CLASSIFICATION_TYPE":"U","NORAD_CAT_ID":13845,"ELEMENT_SET_NO":999,"REV_AT_EPOCH":33121,"BSTAR":0.00054392684,"MEAN_MOTION_DOT":3.983e-5,"MEAN_MOTION_DDOT":0}]
